{
  "norad_id": 59389,
  "name": "STARLINK-31647",
  "history": [
    {
      "epoch": "2026-03-28T12:58:56.197344Z",
      "apogee_km": 476.23299848503757,
      "perigee_km": 474.2385299431953,
      "latitude_deg": 1.9011583663757663e-05,
      "longitude_deg": 147.7225596053004,
      "height_km": 476.4345934458202,
      "semi_major_axis_km": 6853.372764214116,
      "eccentricity": 0.00014551,
      "inclination_deg": 53.1599,
      "raan_deg": 168.4166,
      "arg_perigee_deg": 107.5641,
      "mean_anomaly_deg": 252.5519,
      "mean_motion_rev_day": 15.30193069
    }
  ]
}